NORAD_CAT_ID,OBJECT_NAME,OBJECT_TYPE,EPOCH,MEAN_MOTION,ECCENTRICITY,INCLINATION,RA_OF_ASC_NODE,ARG_OF_PERICENTER,MEAN_ANOMALY,BSTAR,MEAN_MOTION_DOT,MEAN_MOTION_DDOT,TLE_LINE0,TLE_LINE1,TLE_LINE2,SEMIMAJOR_AXIS,PERIOD,APOGEE,PERIGEE,DECAYED
53786.0,STARLINK-4631,PAYLOAD,2023-06-16 09:26:46,15.08838905,0.0001667,53.2173,60.9199,96.4376,263.6806,1.7383e-05,-1.1e-07,0.0,0 STARLINK-4631,1 53786U 22111P   23167.39359703 -.00000011  00000-0  17383-4 0  9993,2 53786  53.2173  60.9199 0001667  96.4376 263.6806 15.08838905 42476,6917.884,95.438,540.902,538.596,0.0
53786.0,STARLINK-4631,PAYLOAD,2023-06-16 17:23:42,15.08837317,0.0001673,53.2174,59.433,96.4943,263.624,2.2831e-06,-2.52e-06,0.0,0 STARLINK-4631,1 53786U 22111P   23167.72479894 -.00000252  00000-0  22831-5 0  9996,2 53786  53.2174  59.4330 0001673  96.4943 263.6240 15.08837317 43338,6917.889,95.438,540.911,538.596,0.0
53786.0,STARLINK-4631,PAYLOAD,2023-06-17 09:17:34,15.08835239,0.0001658,53.2173,56.4599,95.6295,264.4886,-1.515e-05,-5.29e-06,0.0,0 STARLINK-4631,1 53786U 22111P   23168.38720132 -.00000529  00000-0 -15150-4 0  9996,2 53786  53.2173  56.4599 0001658  95.6295 264.4886 15.08835239 43432,6917.895,95.438,540.907,538.613,0.0
53786.0,STARLINK-4631,PAYLOAD,2023-06-17 23:36:03,15.0882989,0.000166,53.2174,53.7837,96.1967,263.9214,-5.9818e-05,-1.24e-05,0.0,0 STARLINK-4631,1 53786U 22111P   23168.98336877 -.00001240  00000-0 -59818-4 0  9991,2 53786  53.2174  53.7837 0001660  96.1967 263.9214 15.08829890 42718,6917.911,95.438,540.925,538.628,0.0
53786.0,STARLINK-4631,PAYLOAD,2023-06-18 09:08:21,15.08833321,0.000167,53.2176,51.9997,95.8309,264.2873,-2.774e-05,-7.29e-06,0.0,0 STARLINK-4631,1 53786U 22111P   23169.38080744 -.00000729  00000-0 -27740-4 0  9995,2 53786  53.2176  51.9997 0001670  95.8309 264.2873 15.08833321 43589,6917.901,95.438,540.921,538.611,0.0
53786.0,STARLINK-4631,PAYLOAD,2023-06-18 18:40:40,15.0883464,0.0001675,53.2175,50.2158,94.2092,265.9092,1.1286e-05,-1.08e-06,0.0,0 STARLINK-4631,1 53786U 22111P   23169.77824698 -.00000108  00000-0  11286-4 0  9990,2 53786  53.2175  50.2158 0001675  94.2092 265.9092 15.08834640 43649,6917.897,95.438,540.921,538.603,0.0
53786.0,STARLINK-4631,PAYLOAD,2023-06-19 01:02:13,15.08836148,0.0001667,53.2176,49.0263,93.6996,266.4187,1.4109e-05,-6.4e-07,0.0,0 STARLINK-4631,1 53786U 22111P   23170.04320678 -.00000064  00000-0  14109-4 0  9999,2 53786  53.2176  49.0263 0001667  93.6996 266.4187 15.08836148 42870,6917.892,95.438,540.91,538.604,0.0
53786.0,STARLINK-4631,PAYLOAD,2023-06-19 08:59:08,15.08838045,0.0001669,53.2178,47.5394,93.8171,266.3012,3.8346e-05,3.22e-06,0.0,0 STARLINK-4631,1 53786U 22111P   23170.37440546  .00000322  00000-0  38346-4 0  9997,2 53786  53.2178  47.5394 0001669  93.8171 266.3012 15.08838045 43739,6917.886,95.438,540.906,538.597,0.0
53786.0,STARLINK-4631,PAYLOAD,2023-06-20 08:49:55,15.08836922,0.0001649,53.2178,43.0783,93.0478,267.0703,6.023e-05,6.71e-06,0.0,0 STARLINK-4631,1 53786U 22111P   23171.36800636  .00000671  00000-0  60230-4 0  9991,2 53786  53.2178  43.0783 0001649  93.0478 267.0703 15.08836922 43076,6917.89,95.438,540.896,538.614,0.0
53786.0,STARLINK-4631,PAYLOAD,2023-06-20 19:57:37,15.08839074,0.0001673,53.2177,40.9968,93.5628,266.5555,4.265e-05,3.91e-06,0.0,0 STARLINK-4631,1 53786U 22111P   23171.83168602  .00000391  00000-0  42650-4 0  9998,2 53786  53.2177  40.9968 0001673  93.5628 266.5555 15.08839074 43952,6917.883,95.438,540.906,538.591,0.0
53786.0,STARLINK-4631,PAYLOAD,2023-06-21 00:43:46,15.08840786,0.0001674,53.2178,40.1046,93.9954,266.123,3.7041e-05,3.02e-06,0.0,0 STARLINK-4631,1 53786U 22111P   23172.03040497  .00000302  00000-0  37041-4 0  9992,2 53786  53.2178  40.1046 0001674  93.9954 266.1230 15.08840786 43980,6917.878,95.438,540.901,538.585,0.0
53786.0,STARLINK-4631,PAYLOAD,2023-06-21 18:13:01,15.08844039,0.0001696,53.2174,36.8336,93.8371,266.2815,6.6738e-06,-1.82e-06,0.0,0 STARLINK-4631,1 53786U 22111P   23172.75904254 -.00000182  00000-0  66738-5 0  9994,2 53786  53.2174  36.8336 0001696  93.8371 266.2815 15.08844039 43284,6917.868,95.437,540.906,538.56,0.0
53786.0,STARLINK-4631,PAYLOAD,2023-06-21 19:48:24,15.08844382,0.0001679,53.2175,36.5363,93.9778,266.1406,1.1458e-05,-1.06e-06,0.0,0 STARLINK-4631,1 53786U 22111P   23172.82528195 -.00000106  00000-0  11458-4 0  9992,2 53786  53.2175  36.5363 0001679  93.9778 266.1406 15.08844382 44103,6917.867,95.437,540.894,538.57,0.0
53786.0,STARLINK-4631,PAYLOAD,2023-06-22 08:31:31,15.08825794,0.0001564,53.2167,34.1579,92.0375,268.0796,-0.00011811,-2.166e-05,0.0,0 STARLINK-4631,1 53786U 22111P   23173.35521998 -.00002166  00000-0 -11811-3 0  9996,2 53786  53.2167  34.1579 0001564  92.0375 268.0796 15.08825794 43370,6917.924,95.438,540.871,538.707,0.0
53786.0,STARLINK-4631,PAYLOAD,2023-06-22 21:14:36,15.08819934,0.0001637,53.2172,31.7792,94.5478,265.5701,-0.0001284,-2.33e-05,0.0,0 STARLINK-4631,1 53786U 22111P   23173.88515007 -.00002330  00000-0 -12840-3 0  9994,2 53786  53.2172  31.7792 0001637  94.5478 265.5701 15.08819934 43454,6917.942,95.439,540.939,538.674,0.0
53786.0,STARLINK-4631,PAYLOAD,2023-06-23 17:54:37,15.08832872,0.000163,53.2173,27.9144,92.3774,267.7404,3.3275e-05,2.41e-06,0.0,0 STARLINK-4631,1 53786U 22111P   23174.74626298  .00000241  00000-0  33275-4 0  9998,2 53786  53.2173  27.9144 0001630  92.3774 267.7404 15.08832872 43585,6917.902,95.438,540.895,538.64,0.0
53786.0,STARLINK-4631,PAYLOAD,2023-06-23 21:05:23,15.08848891,0.0001587,53.2175,27.3184,100.5065,259.6106,-0.00011728,-2.155e-05,0.0,0 STARLINK-4631,1 53786U 22111P   23174.87873930 -.00002155  00000-0 -11728-3 0  9995,2 53786  53.2175  27.3184 0001587 100.5065 259.6106 15.08848891 43601,6917.853,95.437,540.816,538.62,0.0
53786.0,STARLINK-4631,PAYLOAD,2023-06-24 06:37:42,15.0883309,0.0001648,53.2176,25.5344,96.0289,264.0891,0.00015433,2.169e-05,0.0,0 STARLINK-4631,1 53786U 22111P   23175.27618127  .00002169  00000-0  15433-3 0  9995,2 53786  53.2176  25.5344 0001648  96.0289 264.0891 15.08833090 43667,6917.902,95.438,540.907,538.626,0.0
53786.0,STARLINK-4631,PAYLOAD,2023-06-25 00:06:56,15.08841453,0.0001608,53.2178,22.2632,94.539,265.5786,0.00022047,3.223e-05,0.0,0 STARLINK-4631,1 53786U 22111P   23176.00481712  .00003223  00000-0  22047-3 0  9996,2 53786  53.2178  22.2632 0001608  94.5390 265.5786 15.08841453 43778,6917.876,95.437,540.853,538.629,0.0
53786.0,STARLINK-4631,PAYLOAD,2023-06-26 06:19:15,15.08847201,0.0001588,53.2175,16.614,98.2841,261.8331,3.8981e-05,3.33e-06,0.0,0 STARLINK-4631,1 53786U 22111P   23177.26337496  .00000333  00000-0  38981-4 0  9998,2 53786  53.2175  16.6140 0001588  98.2841 261.8331 15.08847201 43968,6917.858,95.437,540.822,538.625,0.0
53786.0,STARLINK-4631,PAYLOAD,2023-06-26 15:51:34,15.08842083,0.00016,53.2173,14.8298,98.2371,261.8803,-4.6443e-05,-1.027e-05,0.0,0 STARLINK-4631,1 53786U 22111P   23177.66081914 -.00001027  00000-0 -46443-4 0  9998,2 53786  53.2173  14.8298 0001600  98.2371 261.8803 15.08842083 44028,6917.874,95.437,540.846,538.632,0.0
53786.0,STARLINK-4631,PAYLOAD,2023-06-27 20:28:30,15.08845005,0.0001564,53.2176,9.4771,93.8199,266.2972,-1.5948e-05,-5.42e-06,0.0,0 STARLINK-4631,1 53786U 22111P   23178.85313207 -.00000542  00000-0 -15948-4 0  9990,2 53786  53.2176   9.4771 0001564  93.8199 266.2972 15.08845005 44208,6917.865,95.437,540.812,538.648,0.0
53786.0,STARLINK-4631,PAYLOAD,2023-06-28 18:43:54,15.08838827,0.0001529,53.2176,5.3134,93.9748,266.1419,1.785e-05,-4e-08,0.0,0 STARLINK-4631,1 53786U 22111P   23179.78049367 -.00000004  00000-0  17850-4 0  9992,2 53786  53.2176   5.3134 0001529  93.9748 266.1419 15.08838827 44342,6917.884,95.438,540.807,538.691,0.0
53786.0,STARLINK-4631,PAYLOAD,2023-07-01 18:16:15,15.08837076,0.0001502,53.2181,351.9327,94.0322,266.0842,-1.0676e-05,-4.58e-06,0.0,0 STARLINK-4631,1 53786U 22111P   23182.76129528 -.00000458  00000-0 -10676-4 0  9995,2 53786  53.2181 351.9327 0001502  94.0322 266.0842 15.08837076 44796,6917.889,95.438,540.793,538.715,0.0
53786.0,STARLINK-4631,PAYLOAD,2023-07-02 21:17:49,15.08837062,0.0001389,53.2178,346.8775,95.4865,264.6285,-8.9768e-06,-4.31e-06,0.0,0 STARLINK-4631,1 53786U 22111P   23183.88737728 -.00000431  00000-0 -89768-5 0  9996,2 53786  53.2178 346.8775 0001389  95.4865 264.6285 15.08837062 44961,6917.889,95.438,540.715,538.793,0.0
53786.0,STARLINK-4631,PAYLOAD,2023-07-04 09:51:41,15.08835449,0.0001311,53.2176,340.0379,92.7044,267.4098,5.1237e-05,5.28e-06,0.0,0 STARLINK-4631,1 53786U 22111P   23185.41089938  .00000528  00000-0  51237-4 0  9994,2 53786  53.2176 340.0379 0001311  92.7044 267.4098 15.08835449 45195,6917.894,95.438,540.666,538.852,0.0
53786.0,STARLINK-4631,PAYLOAD,2023-07-05 14:28:38,15.08838027,0.0001281,53.2177,334.6853,90.5711,269.5428,4.2585e-06,-2.2e-06,0.0,0 STARLINK-4631,1 53786U 22111P   23186.60322136 -.00000220  00000-0  42585-5 0  9993,2 53786  53.2177 334.6853 0001281  90.5711 269.5428 15.08838027 45370,6917.886,95.438,540.638,538.865,0.0
53786.0,STARLINK-4631,PAYLOAD,2023-07-06 17:30:11,15.08840461,0.0001258,53.2176,329.6298,90.1939,269.9197,2.7803e-05,1.55e-06,0.0,0 STARLINK-4631,1 53786U 22111P   23187.72929951  .00000155  00000-0  27803-4 0  9996,2 53786  53.2176 329.6298 0001258  90.1939 269.9197 15.08840461 45549,6917.879,95.438,540.614,538.874,0.0
53786.0,STARLINK-4631,PAYLOAD,2023-07-08 09:14:49,15.08840553,0.0001235,53.2177,322.1956,88.3268,271.7866,2.2097e-05,6.4e-07,0.0,0 STARLINK-4631,1 53786U 22111P   23189.38529891  .00000064  00000-0  22097-4 0  9998,2 53786  53.2177 322.1956 0001235  88.3268 271.7866 15.08840553 45791,6917.879,95.438,540.598,538.889,0.0
53786.0,STARLINK-4631,PAYLOAD,2023-07-09 12:16:23,15.08834532,0.0001229,53.2177,317.141,86.3279,273.7853,-3.3303e-05,-8.18e-06,0.0,0 STARLINK-4631,1 53786U 22111P   23190.51138455 -.00000818  00000-0 -33303-4 0  9998,2 53786  53.2177 317.1410 0001229  86.3279 273.7853 15.08834532 45960,6917.897,95.438,540.612,538.912,0.0
